QIANFAN-25              
1 61558U 24185G   25231.55841454  .00000312  00000+0  18303-3 0  9997
2 61558  88.9757  91.2433 0005711 316.2483  43.8246 14.05762395 53326
QIANFAN-26              
1 61559U 24185H   25231.56434462  .00000205  00000+0  19267-3 0  9997
2 61559  88.9772  92.1988 0006393  18.6861 341.4539 13.77727094 52819
QIANFAN-27              
1 61560U 24185J   25231.62644060  .00000402  00000+0  15906-3 0  9998
2 61560  88.9764  90.4574 0006694 321.7655  38.3064 14.27135589 53743
QIANFAN-28              
1 61561U 24185K   25231.58935984  .00000580  00000+0  22930-3 0  9994
2 61561  88.9780  90.4566 0005752 324.9992  35.0823 14.27706474 53740
QIANFAN-29              
1 61562U 24185L   25231.56914156  .00000157  00000+0  22497-3 0  9999
2 61562  88.9766  93.2288 0011343  32.9467 327.2389 13.50960758 52242
QIANFAN-30              
1 61563U 24185M   25231.60504466  .00000135  00000+0  19410-3 0  9991
2 61563  88.9771  92.7058 0008371  21.9027 338.2480 13.49933557 52536
QIANFAN-31              
1 61564U 24185N   25231.58587131  .00000094  00000+0  11274-3 0  9993
2 61564  88.9755  92.6921 0008024  20.7260 339.4219 13.57908065 52536
QIANFAN-32              
1 61565U 24185P   25231.56331207  .00000150  00000+0  21541-3 0  9994
2 61565  88.9814  92.8094 0010890  42.1208 318.0778 13.50686682 52499
